{
  "type": "FeatureCollection",
  "features": [
    {
      "type": "Feature",
      "properties": {
        "norad_id": 31815,
        "name": "FENGYUN 1C DEB",
        "group": "fengyun-1c-debris",
        "lat": 49.74562107512735,
        "lon": -25.17193950175458,
        "alt_km": 834.9279273038164,
        "timestamp": "2025-12-25T07:41:10.007240+00:00",
        "meta_object_name": "FENGYUN 1C DEB",
        "meta_object_id": "1999-025CHD",
        "meta_epoch": "2025-12-22T16:26:54.855168",
        "meta_mean_motion": 14.10282936,
        "meta_eccentricity": 0.00587479,
        "meta_inclination": 98.769,
        "meta_ra_of_asc_node": 342.7627,
        "meta_arg_of_pericenter": 354.1539,
        "meta_mean_anomaly": 5.8939,
        "meta_ephemeris_type": 0,
        "meta_classification_type": "U",
        "meta_norad_cat_id": 31815,
        "meta_element_set_no": 999,
        "meta_rev_at_epoch": 95679,
        "meta_bstar": 8.1796289e-05,
        "meta_mean_motion_dot": 1.04e-06,
        "meta_mean_motion_ddot": 0,
        "tle_line1": "1 31815U 99025CHD 25356.68535712  .00000104  00000+0  81796-4 0  9990",
        "tle_line2": "2 31815  98.7690 342.7627 0058747 354.1539   5.8939 14.10282936956797"
      },
      "geometry": {
        "type": "Point",
        "coordinates": [
          -25.17193950175458,
          49.74562107512735
        ]
      }
    },
    {
      "type": "Feature",
      "properties": {
        "norad_id": 31816,
        "name": "FENGYUN 1C DEB",
        "group": "fengyun-1c-debris",
        "lat": 35.00468227116376,
        "lon": 106.90168986391728,
        "alt_km": 902.5755117018853,
        "timestamp": "2025-12-25T07:41:10.007250+00:00",
        "meta_object_name": "FENGYUN 1C DEB",
        "meta_object_id": "1999-025CHE",
        "meta_epoch": "2025-12-18T19:29:53.743776",
        "meta_mean_motion": 13.94197872,
        "meta_eccentricity": 0.01209789,
        "meta_inclination": 98.9843,
        "meta_ra_of_asc_node": 106.933,
        "meta_arg_of_pericenter": 138.28,
        "meta_mean_anomaly": 12.885,
        "meta_ephemeris_type": 0,
        "meta_classification_type": "U",
        "meta_norad_cat_id": 31816,
        "meta_element_set_no": 999,
        "meta_rev_at_epoch": 93778,
        "meta_bstar": 0.00051958301,
        "meta_mean_motion_dot": 6.91e-06,
        "meta_mean_motion_ddot": 0,
        "tle_line1": "1 31816U 99025CHE 25352.81242759  .00000691  00000+0  51958-3 0  9995",
        "tle_line2": "2 31816  98.9843 106.9330 0120978 138.2800  12.8850 13.94197872937782"
      },
      "geometry": {
        "type": "Point",
        "coordinates": [
          106.90168986391728,
          35.00468227116376
        ]
      }
    },
    {
      "type": "Feature",
      "properties": {
        "norad_id": 31817,
        "name": "FENGYUN 1C DEB",
        "group": "fengyun-1c-debris",
        "lat": -77.52085139406186,
        "lon": 131.547604625515,
        "alt_km": 713.360384537712,
        "timestamp": "2025-12-25T07:41:10.007260+00:00",
        "meta_object_name": "FENGYUN 1C DEB",
        "meta_object_id": "1999-025CHF",
        "meta_epoch": "2025-12-17T05:10:40.756800",
        "meta_mean_motion": 14.65734447,
        "meta_eccentricity": 0.00627326,
        "meta_inclination": 98.9191,
        "meta_ra_of_asc_node": 347.9563,
        "meta_arg_of_pericenter": 62.1287,
        "meta_mean_anomaly": 298.6249,
        "meta_ephemeris_type": 0,
        "meta_classification_type": "U",
        "meta_norad_cat_id": 31817,
        "meta_element_set_no": 999,
        "meta_rev_at_epoch": 71471,
        "meta_bstar": 0.0010276456,
        "meta_mean_motion_dot": 5.707e-05,
        "meta_mean_motion_ddot": 0,
        "tle_line1": "1 31817U 99025CHF 25351.21574950  .00005707  00000+0  10276-2 0  9990",
        "tle_line2": "2 31817  98.9191 347.9563 0062732  62.1287 298.6249 14.65734447714717"
      },
      "geometry": {
        "type": "Point",
        "coordinates": [
          131.547604625515,
          -77.52085139406186
        ]
      }
    },
    {
      "type": "Feature",
      "properties": {
        "norad_id": 31819,
        "name": "FENGYUN 1C DEB",
        "group": "fengyun-1c-debris",
        "lat": 17.634954547842774,
        "lon": -12.415511595570326,
        "alt_km": 796.1571790869275,
        "timestamp": "2025-12-25T07:41:10.007270+00:00",
        "meta_object_name": "FENGYUN 1C DEB",
        "meta_object_id": "1999-025CHH",
        "meta_epoch": "2025-12-23T16:59:06.271008",
        "meta_mean_motion": 14.30199058,
        "meta_eccentricity": 0.00865225,
        "meta_inclination": 98.4748,
        "meta_ra_of_asc_node": 348.7306,
        "meta_arg_of_pericenter": 287.8472,
        "meta_mean_anomaly": 71.3288,
        "meta_ephemeris_type": 0,
        "meta_classification_type": "U",
        "meta_norad_cat_id": 31819,
        "meta_element_set_no": 999,
        "meta_rev_at_epoch": 96850,
        "meta_bstar": 0.00034975795,
        "meta_mean_motion_dot": 9e-06,
        "meta_mean_motion_ddot": 0,
        "tle_line1": "1 31819U 99025CHH 25357.70771147  .00000900  00000+0  34976-3 0  9993",
        "tle_line2": "2 31819  98.4748 348.7306 0086522 287.8472  71.3288 14.30199058968503"
      },
      "geometry": {
        "type": "Point",
        "coordinates": [
          -12.415511595570326,
          17.634954547842774
        ]
      }
    },
    {
      "type": "Feature",
      "properties": {
        "norad_id": 31820,
        "name": "FENGYUN 1C DEB",
        "group": "fengyun-1c-debris",
        "lat": -38.135324687489565,
        "lon": -15.130359750482453,
        "alt_km": 635.9464513621124,
        "timestamp": "2025-12-25T07:41:10.007280+00:00",
        "meta_object_name": "FENGYUN 1C DEB",
        "meta_object_id": "1999-025CHJ",
        "meta_epoch": "2025-12-23T17:41:28.650624",
        "meta_mean_motion": 14.92432004,
        "meta_eccentricity": 0.01493476,
        "meta_inclination": 98.9594,
        "meta_ra_of_asc_node": 170.1846,
        "meta_arg_of_pericenter": 336.6514,
        "meta_mean_anomaly": 22.7964,
        "meta_ephemeris_type": 0,
        "meta_classification_type": "U",
        "meta_norad_cat_id": 31820,
        "meta_element_set_no": 999,
        "meta_rev_at_epoch": 98420,
        "meta_bstar": 0.00095309821,
        "meta_mean_motion_dot": 0.00012066,
        "meta_mean_motion_ddot": 0,
        "tle_line1": "1 31820U 99025CHJ 25357.73713716  .00012066  00000+0  95310-3 0  9991",
        "tle_line2": "2 31820  98.9594 170.1846 0149347 336.6514  22.7964 14.92432004984205"
      },
      "geometry": {
        "type": "Point",
        "coordinates": [
          -15.130359750482453,
          -38.135324687489565
        ]
      }
    },
    {
      "type": "Feature",
      "properties": {
        "norad_id": 31821,
        "name": "FENGYUN 1C DEB",
        "group": "fengyun-1c-debris",
        "lat": 57.78214488835873,
        "lon": 76.89037763681078,
        "alt_km": 870.6426953767032,
        "timestamp": "2025-12-25T07:41:10.007292+00:00",
        "meta_object_name": "FENGYUN 1C DEB",
        "meta_object_id": "1999-025CHK",
        "meta_epoch": "2025-12-24T22:48:15.050880",
        "meta_mean_motion": 14.42392656,
        "meta_eccentricity": 0.02181679,
        "meta_inclination": 98.1555,
        "meta_ra_of_asc_node": 243.3826,
        "meta_arg_of_pericenter": 337.7172,
        "meta_mean_anomaly": 21.4647,
        "meta_ephemeris_type": 0,
        "meta_classification_type": "U",
        "meta_norad_cat_id": 31821,
        "meta_element_set_no": 999,
        "meta_rev_at_epoch": 93837,
        "meta_bstar": 0.0047830046,
        "meta_mean_motion_dot": 0.00021077,
        "meta_mean_motion_ddot": 0,
        "tle_line1": "1 31821U 99025CHK 25358.95017420  .00021077  00000+0  47830-2 0  9991",
        "tle_line2": "2 31821  98.1555 243.3826 0218167 337.7172  21.4647 14.42392656938379"
      },
      "geometry": {
        "type": "Point",
        "coordinates": [
          76.89037763681078,
          57.78214488835873
        ]
      }
    },
    {
      "type": "Feature",
      "properties": {
        "norad_id": 31823,
        "name": "FENGYUN 1C DEB",
        "group": "fengyun-1c-debris",
        "lat": -78.5089728569634,
        "lon": 143.03550766584743,
        "alt_km": 683.4307444990673,
        "timestamp": "2025-12-25T07:41:10.007306+00:00",
        "meta_object_name": "FENGYUN 1C DEB",
        "meta_object_id": "1999-025CHM",
        "meta_epoch": "2025-12-22T11:15:51.236928",
        "meta_mean_motion": 14.65842433,
        "meta_eccentricity": 0.0037269,
        "meta_inclination": 99.5081,
        "meta_ra_of_asc_node": 84.2081,
        "meta_arg_of_pericenter": 190.6283,
        "meta_mean_anomaly": 169.4133,
        "meta_ephemeris_type": 0,
        "meta_classification_type": "U",
        "meta_norad_cat_id": 31823,
        "meta_element_set_no": 999,
        "meta_rev_at_epoch": 96860,
        "meta_bstar": 0.0018213497,
        "meta_mean_motion_dot": 9.997e-05,
        "meta_mean_motion_ddot": 0,
        "tle_line1": "1 31823U 99025CHM 25356.46934302  .00009997  00000+0  18213-2 0  9994",
        "tle_line2": "2 31823  99.5081  84.2081 0037269 190.6283 169.4133 14.65842433968606"
      },
      "geometry": {
        "type": "Point",
        "coordinates": [
          143.03550766584743,
          -78.5089728569634
        ]
      }
    }
  ]
}